NORAD_CAT_ID,OBJECT_NAME,OBJECT_TYPE,EPOCH,MEAN_MOTION,ECCENTRICITY,INCLINATION,RA_OF_ASC_NODE,ARG_OF_PERICENTER,MEAN_ANOMALY,BSTAR,MEAN_MOTION_DOT,MEAN_MOTION_DDOT,TLE_LINE0,TLE_LINE1,TLE_LINE2,SEMIMAJOR_AXIS,PERIOD,APOGEE,PERIGEE,DECAYED
53834.0,STARLINK-4737,PAYLOAD,2022-10-05 08:00:01,15.73225748,0.0001091,53.2153,178.1683,108.1407,8.6628,-0.0011042,-0.00152966,0.0,0 STARLINK-4737,1 53834U 22114S   22278.33334491 -.00152966  00000-0 -11042-2 0  9995,2 53834  53.2153 178.1683 0001091 108.1407   8.6628 15.73225748  3142,6727.821999999999,91.532,350.421,348.95300000000015,0.0
53834.0,STARLINK-4737,PAYLOAD,2022-10-05 14:00:01,15.73043299,0.0001309,53.2153,176.9299,120.6225,332.9472,0.0015628,0.00223132,0.0,0 STARLINK-4737,1 53834U 22114S   22278.58335648  .00223132  00000-0  15628-2 0  9993,2 53834  53.2153 176.9299 0001309 120.6225 332.9472 15.73043299  1305,6728.342,91.542,351.088,349.326,0.0
53834.0,STARLINK-4737,PAYLOAD,2022-10-05 22:00:00,15.73245084,0.0001264999999999,53.2155,175.2821,115.6776,66.6347,-0.00062714,-0.00087889,0.0,0 STARLINK-4737,1 53834U 22114S   22278.91667824 -.00087889  00000-0 -62714-3 0  9992,2 53834  53.2155 175.2821 0001265 115.6776  66.6347 15.73245084  3238,6727.767,91.531,350.483,348.781,0.0
53834.0,STARLINK-4737,PAYLOAD,2022-10-06 06:00:00,15.73194349,0.0001092,53.2154,173.6331,113.1154,158.1485,1.462e-05,1.432e-05,0.0,0 STARLINK-4737,1 53834U 22114S   22279.25001157  .00001432  00000-0  14620-4 0  9993,2 53834  53.2154 173.6331 0001092 113.1154 158.1485 15.73194349  3288,6727.911,91.534,350.511,349.042,0.0
53834.0,STARLINK-4737,PAYLOAD,2022-10-06 14:00:01,15.73157119,0.0001318,53.2158,171.9816,120.8875,239.3103,0.00069514,0.00097901,0.0,0 STARLINK-4737,1 53834U 22114S   22279.58334491  .00097901  00000-0  69514-3 0  9996,2 53834  53.2158 171.9816 0001318 120.8875 239.3103 15.73157119  1312,6728.017,91.536,350.769,348.996,0.0
53834.0,STARLINK-4737,PAYLOAD,2022-10-06 22:42:55,15.73192778,0.0001238,53.2159,170.1865,119.8955,138.0013,6.6098e-05,8.663e-05,0.0,0 STARLINK-4737,1 53834U 22114S   22279.94646991  .00008663  00000-0  66098-4 0  9999,2 53834  53.2159 170.1865 0001238 119.8955 138.0013 15.73192778  1300,6727.916,91.534,350.61400000000015,348.9480000000001,0.0
53834.0,STARLINK-4737,PAYLOAD,2022-10-07 14:00:01,15.7325437,0.0001344,53.2156,167.0334,128.2568,138.7091,2.9956e-05,3.595e-05,0.0,0 STARLINK-4737,1 53834U 22114S   22280.58334491  .00003595  00000-0  29956-4 0  9991,2 53834  53.2156 167.0334 0001344 128.2568 138.7091 15.73254370  3497,6727.74,91.53,350.509,348.701,0.0
53834.0,STARLINK-4737,PAYLOAD,2022-10-07 22:00:00,15.73276089,0.0001375999999999,53.2156,165.3855,121.5445,234.3972,-0.00086263,-0.0012036,0.0,0 STARLINK-4737,1 53834U 22114S   22280.91667824 -.00120360  00000-0 -86263-3 0  9992,2 53834  53.2156 165.3855 0001376 121.5445 234.3972 15.73276089  3549,6727.678000000001,91.529,350.469,348.61800000000005,0.0
53834.0,STARLINK-4737,PAYLOAD,2022-10-08 14:00:01,15.7308296,0.0001546,53.2156,162.0848,124.2515,49.5463,0.00078074,0.00109842,0.0,0 STARLINK-4737,1 53834U 22114S   22281.58334491  .00109842  00000-0  78074-3 0  9998,2 53834  53.2156 162.0848 0001546 124.2515  49.5463 15.73082960  1308,6728.229,91.54,351.134,349.05400000000014,0.0
53834.0,STARLINK-4737,PAYLOAD,2022-10-08 22:00:00,15.73218309,0.0001236,53.2166,160.4381,125.1074,137.5777,-0.00027071,-0.00038468,0.0,0 STARLINK-4737,1 53834U 22114S   22281.91667824 -.00038468  00000-0 -27071-3 0  9992,2 53834  53.2166 160.4381 0001236 125.1074 137.5777 15.73218309  3709,6727.843000000003,91.532,350.54,348.876,0.0
53834.0,STARLINK-4737,PAYLOAD,2022-10-09 14:00:01,15.73201234,0.0001460999999999,53.2152,157.1365,128.2511,312.2968,0.00022544,0.00031138,0.0,0 STARLINK-4737,1 53834U 22114S   22282.58334491  .00031138  00000-0  22544-3 0  9992,2 53834  53.2152 157.1365 0001461 128.2511 312.2968 15.73201234  1306,6727.892,91.533,350.74,348.774,0.0
53834.0,STARLINK-4737,PAYLOAD,2022-10-09 22:00:00,15.73227026,0.0001284999999999,53.2152,155.489,122.0771,47.4134,6.7137e-05,8.823e-05,0.0,0 STARLINK-4737,1 53834U 22114S   22282.91667824  .00008823  00000-0  67137-4 0  9991,2 53834  53.2152 155.4890 0001285 122.0771  47.4134 15.73227026  1303,6727.818,91.532,350.548,348.819,0.0
53834.0,STARLINK-4737,PAYLOAD,2022-10-10 08:00:01,15.733027900000002,0.0001389,53.2162,153.4275,118.7402,251.9497,-0.0023349,-0.00317643,0.0,0 STARLINK-4737,1 53834U 22114S   22283.33334491 -.00317643  00000-0 -23349-2 0  9999,2 53834  53.2162 153.4275 0001389 118.7402 251.9497 15.73302790  3923,6727.602,91.527,350.402,348.533,0.0
53834.0,STARLINK-4737,PAYLOAD,2022-10-10 14:00:01,15.73211166,0.0001558,53.2151,152.1876,128.7012,218.7491,0.00036777,0.00051335,0.0,0 STARLINK-4737,1 53834U 22114S   22283.58334491  .00051335  00000-0  36777-3 0  9997,2 53834  53.2151 152.1876 0001558 128.7012 218.7491 15.73211166  1301,6727.863,91.533,350.777,348.68,0.0
53834.0,STARLINK-4737,PAYLOAD,2022-10-10 22:00:01,15.73362582,0.0001369,53.2167,150.541,124.6147,311.8515,-0.0040111,-0.0053301,0.0,0 STARLINK-4737,1 53834U 22114S   22283.91668981 -.00533010  00000-0 -40111-2 0  9991,2 53834  53.2167 150.5410 0001369 124.6147 311.8515 15.73362582  4021,6727.432,91.524,350.218,348.376,0.0
53834.0,STARLINK-4737,PAYLOAD,2022-10-11 06:00:00,15.731976,0.0001200999999999,53.2151,148.8902,122.0518,43.1831,-0.00059655,-0.00083506,0.0,0 STARLINK-4737,1 53834U 22114S   22284.25001157 -.00083506  00000-0 -59655-3 0  9999,2 53834  53.2151 148.8902 0001201 122.0518  43.1831 15.73197600  4077,6727.901999999999,91.533,350.575,348.959,0.0
53834.0,STARLINK-4737,PAYLOAD,2022-10-11 14:00:01,15.73154337,0.0001418,53.217,147.2409,121.6595,132.4738,0.00056941,0.00079899,0.0,0 STARLINK-4737,1 53834U 22114S   22284.58334491  .00079899  00000-0  56941-3 0  9998,2 53834  53.2170 147.2409 0001418 121.6595 132.4738 15.73154337  1304,6728.025,91.536,350.844,348.936,0.0
53834.0,STARLINK-4737,PAYLOAD,2022-10-11 22:00:00,15.73219336,0.0001071,53.2142,145.5915,130.9099,212.1612,-0.0001114,-0.00016236,0.0,0 STARLINK-4737,1 53834U 22114S   22284.91667824 -.00016236  00000-0 -11140-3 0  9994,2 53834  53.2142 145.5915 0001071 130.9099 212.1612 15.73219336  1301,6727.84,91.532,350.426,348.9840000000001,0.0
53834.0,STARLINK-4737,PAYLOAD,2022-10-12 06:00:00,15.73162554,0.0001149,53.2166,143.9433,113.9075,318.0893,0.00047844,0.00066954,0.0,0 STARLINK-4737,1 53834U 22114S   22285.25001157  .00066954  00000-0  47844-3 0  9993,2 53834  53.2166 143.9433 0001149 113.9075 318.0893 15.73162554  4225,6728.002,91.535,350.64,349.094,0.0
53834.0,STARLINK-4737,PAYLOAD,2022-10-12 14:00:01,15.73204634,0.0001288,53.2174,142.2926,118.3558,42.5554,8.1684e-07,-5.05e-06,0.0,0 STARLINK-4737,1 53834U 22114S   22285.58334491 -.00000505  00000-0  81684-6 0  9993,2 53834  53.2174 142.2926 0001288 118.3558  42.5554 15.73204634  1307,6727.882,91.533,350.61400000000015,348.88,0.0
53834.0,STARLINK-4737,PAYLOAD,2022-10-12 22:00:00,15.73204206,0.0001225,53.2175,140.6452,111.7998,138.0449,-7.327899999999998e-07,-7.23e-06,0.0,0 STARLINK-4737,1 53834U 22114S   22285.91667824 -.00000723  00000-0 -73279-6 0  9993,2 53834  53.2175 140.6452 0001225 111.7998 138.0449 15.73204206  4335,6727.8830000000025,91.533,350.57199999999995,348.9240000000001,0.0
53834.0,STARLINK-4737,PAYLOAD,2022-10-13 14:00:01,15.73256297,0.0001069,53.2166,137.3433,134.8999,292.7842,-0.00052416,-0.00073715,0.0,0 STARLINK-4737,1 53834U 22114S   22286.58334491 -.00073715  00000-0 -52416-3 0  9996,2 53834  53.2166 137.3433 0001069 134.8999 292.7842 15.73256297  1306,6727.735,91.53,350.319,348.88,0.0
53834.0,STARLINK-4737,PAYLOAD,2022-10-13 22:00:00,15.73168373,0.0001177,53.2171,135.6961,121.9967,34.6683,0.00041198,0.00057517,0.0,0 STARLINK-4737,1 53834U 22114S   22286.91667824  .00057517  00000-0  41198-3 0  9997,2 53834  53.2171 135.6961 0001177 121.9967  34.6683 15.73168373  1304,6727.985,91.535,350.642,349.05800000000005,0.0
53834.0,STARLINK-4737,PAYLOAD,2022-10-14 08:00:01,15.73225721,0.0001406,53.2157,133.632,122.0154,236.1465,-0.0032399,-0.00433164,0.0,0 STARLINK-4737,1 53834U 22114S   22287.33335648 -.00433164  00000-0 -32399-2 0  9990,2 53834  53.2157 133.6320 0001406 122.0154 236.1465 15.73225721  4558,6727.821999999999,91.532,350.6330000000001,348.741,0.0
53834.0,STARLINK-4737,PAYLOAD,2022-10-14 14:00:01,15.72875179,0.0001371,53.2169,132.3946,116.742,217.9439,0.0036764,0.00542562,0.0,0 STARLINK-4737,1 53834U 22114S   22287.58334491  .00542562  00000-0  36764-2 0  9993,2 53834  53.2169 132.3946 0001371 116.7420 217.9439 15.72875179  1303,6728.821,91.552,351.6090000000001,349.764,0.0
53834.0,STARLINK-4737,PAYLOAD,2022-10-14 16:00:00,15.73166898,0.0001512,53.2172,131.9827,121.8594,324.9071,0.00046059,0.00064426,0.0,0 STARLINK-4737,1 53834U 22114S   22287.66667824  .00064426  00000-0  46059-3 0  9998,2 53834  53.2172 131.9827 0001512 121.8594 324.9071 15.73166898  4616,6727.99,91.535,350.872,348.837,0.0
53834.0,STARLINK-4737,PAYLOAD,2022-10-14 22:00:00,15.73205667,0.0001409,53.2175,130.7479,117.7047,305.7449,-1.582e-05,-2.84e-05,0.0,0 STARLINK-4737,1 53834U 22114S   22287.91667824 -.00002840  00000-0 -15820-4 0  9993,2 53834  53.2175 130.7479 0001409 117.7047 305.7449 15.73205667  1308,6727.879,91.533,350.69199999999995,348.796,0.0
53834.0,STARLINK-4737,PAYLOAD,2022-10-15 06:00:00,15.73209028,0.0001828,53.2173,129.0969,144.4182,7.9644,-5.0879e-05,-7.758e-05,0.0,0 STARLINK-4737,1 53834U 22114S   22288.25001157 -.00007758  00000-0 -50879-4 0  9998,2 53834  53.2173 129.0969 0001828 144.4182   7.9644 15.73209028  4703,6727.869000000002,91.533,350.964,348.505,0.0
53834.0,STARLINK-4737,PAYLOAD,2022-10-15 14:00:01,15.73229653,0.0001575,53.2143,127.4443,139.3731,102.1174,3.9345e-06,-6.8e-07,0.0,0 STARLINK-4737,1 53834U 22114S   22288.58334491 -.00000068  00000-0  39345-5 0  9996,2 53834  53.2143 127.4443 0001575 139.3731 102.1174 15.73229653  1306,6727.811,91.531,350.735,348.616,0.0
